PROBA-1                 
1 26958U 01049B   26182.93837176  .00002889  00000+0  18772-3 0  9991
2 26958  97.9597 191.9861 0056677  73.6310 287.1138 15.07561651345845
CUTE-1 (CO-55)          
1 27844U 03031E   26182.92971394  .00000305  00000+0  15103-3 0  9995
2 27844  98.6736 191.3031 0010400 137.2748 222.9241 14.24344785193772
CUBESAT XI-IV (CO-57)   
1 27848U 03031J   26182.50387728  .00000247  00000+0  12755-3 0  9990
2 27848  98.6768 190.5840 0009878 155.7692 204.3953 14.23628338193413
APRIZESAT 4             
1 35684U 09041D   26182.14789819  .00000751  00000+0  96134-4 0  9995
2 35684  98.1410 257.7465 0041887 276.5074  83.1371 14.83897710913437
APRIZESAT 3             
1 35686U 09041F   26182.94495552  .00001008  00000+0  91794-4 0  9996
2 35686  98.2079 336.8773 0062003  19.3739 340.9818 14.96280631918589
PROBA-2                 
1 36037U 09059B   26182.75209676  .00000195  00000+0  55890-4 0  9998
2 36037  98.2453   5.9031 0012197 232.3480 127.6611 14.54868696883642
APRIZESAT 5             
1 37792U 11044E   26182.05936221  .00001115  00000+0  14803-3 0  9991
2 37792  98.2451 115.4931 0051257 319.3528  40.3862 14.81105153800846
APRIZESAT 6             
1 37793U 11044F   26182.70696039  .00000879  00000+0  13088-3 0  9994
2 37793  98.2352  93.5024 0044051  40.8859 349.1550 14.76938675799290
PROBA-V                 
1 39159U 13021A   26182.94922085  .00000112  00000+0  67030-4 0  9995
2 39159  98.3594 160.8276 0005436  89.7970 270.3832 14.23600718683212
APRIZESAT 7             
1 39416U 13066A   26182.84552855  .00001039  00000+0  10799-3 0  9991
2 39416  97.7716 135.8553 0036275 160.3695 199.8929 14.91594664683413
APRIZESAT 8             
1 39425U 13066K   26182.80430936  .00000903  00000+0  10370-3 0  9996
2 39425  97.8225 130.0689 0044552 236.8406 122.8533 14.87678035681844
BUGSAT-1 (TITA)         
1 40014U 14033E   26182.95659538  .00005870  00000+0  30853-3 0  9990
2 40014  98.0436 276.3708 0028898 128.8896 231.4919 15.15749206658076
SAUDISAT 4              
1 40016U 14033G   26182.92961980  .00000640  00000+0  90861-4 0  9992
2 40016  97.7601 328.5557 0045352  27.1350 333.2218 14.79563159648252
APRIZESAT 9             
1 40018U 14033J   26182.93624507  .00000850  00000+0  13179-3 0  9995
2 40018  97.9080 315.7756 0066815 151.8652 208.6193 14.74236590645731
APRIZESAT 10            
1 40019U 14033K   26182.88858096  .00000636  00000+0  10750-3 0  9996
2 40019  97.9669 309.5215 0077790 226.1386 133.3376 14.70897666644414
TECHDEMOSAT-1 (TDS-1)   
1 40076U 14037H   26182.96884655  .00009794  00000+0  55061-3 0  9990
2 40076  98.3814 176.6491 0005540 202.0957 158.0034 15.13516017650467
TECHNOSAT               
1 42829U 17042E   26182.94287463  .00002770  00000+0  19845-3 0  9996
2 42829  97.4294 340.0410 0018664  47.4626 312.8173 15.05043469488921
FLYING LAPTOP           
1 42831U 17042G   26182.98307652  .00004938  00000+0  38726-3 0  9993
2 42831  97.4750 337.9527 0019984  74.4276 285.9153 15.01241953488676
HAWK-A                  
1 43765U 18099H   26182.39249832  .00008276  00000+0  33116-3 0  9990
2 43765  97.3903 234.4438 0033452 233.4473 126.3684 15.24811090415268
HAWK-B                  
1 43794U 18099AN  26182.62812101  .00006997  00000+0  29702-3 0  9997
2 43794  97.3950 234.0612 0030357 251.4332 108.3606 15.22979388415231
HAWK-C                  
1 43799U 18099AT  26182.86056741  .00009154  00000+0  32719-3 0  9998
2 43799  97.3878 235.8907 0039117 231.6802 128.0919 15.28309695416158
SALSAT                  
1 46495U 20068K   26182.92716775  .00008869  00000+0  30791-3 0  9990
2 46495  97.8846 186.8910 0008027 245.2054 114.8351 15.30008157317615
HAWK-2C                 
1 47502U 21006CT  26182.69183452  .00007545  00000+0  22544-3 0  9994
2 47502  97.2266 226.7130 0008126 139.5600 220.6249 15.34839968301728
HAWK-2A                 
1 47505U 21006CW  26182.69418778  .00007565  00000+0  22596-3 0  9998
2 47505  97.2308 227.4016 0007581 142.4440 217.7334 15.34854376301720
HAWK-2B                 
1 47508U 21006CZ  26182.68879231  .00008712  00000+0  25888-3 0  9997
2 47508  97.2178 225.7048 0008170 141.0257 219.1577 15.34965754301728
HAWK-3B                 
1 48931U 21059BE  26182.47245720  .00052015  00000+0  41909-3 0  9990
2 48931  97.6641  20.5432 0003368 256.2864 103.8023 15.70761582280097
HAWK-3C                 
1 48948U 21059BX  26182.47213321  .00049801  00000+0  40148-3 0  9993
2 48948  97.6757  26.2531 0003522 257.1349 102.9519 15.70756349280091
HAWK-3A                 
1 48957U 21059CG  26182.47201444  .00051563  00000+0  41558-3 0  9990
2 48957  97.6702  23.4463 0003532 260.1091  99.9771 15.70755505280091
HAWK-5C                 
1 52754U 22057Y   26182.94135249  .00022913  00000+0  38307-3 0  9995
2 52754  97.6610 343.5656 0003985  33.7939 326.3566 15.51915588228635
HAWK-5B                 
1 52756U 22057AA  26182.94117565  .00021791  00000+0  36440-3 0  9997
2 52756  97.6624 341.9161 0004564  24.4564 335.6904 15.51917354228632
